{
  "norad_id": 59464,
  "name": "STARLINK-31597",
  "history": [
    {
      "epoch": "2026-03-28T20:32:27.180960Z",
      "apogee_km": 483.97780917805085,
      "perigee_km": 482.01182046783197,
      "latitude_deg": 3.214070617081465e-05,
      "longitude_deg": 151.91736025202272,
      "height_km": 482.7381453337866,
      "semi_major_axis_km": 6861.131814822941,
      "eccentricity": 0.00014327,
      "inclination_deg": 43.001,
      "raan_deg": 286.3009,
      "arg_perigee_deg": 271.9535,
      "mean_anomaly_deg": 88.1153,
      "mean_motion_rev_day": 15.27598128
    }
  ]
}