{"fetched_at":"2026-03-29T16:36:15Z","count":15609,"tles":[{"name":"STARLINK-31597","line1":"1 59464U 24068K   26087.85587015  .00006024  00000+0  22813-3 0  9990","line2":"2 59464  43.0010 286.3009 0001432 271.9535  88.1153 15.27598128111409","category":"Starlink"}]}